NORAD_CAT_ID,OBJECT_NAME,OBJECT_TYPE,EPOCH,MEAN_MOTION,ECCENTRICITY,INCLINATION,RA_OF_ASC_NODE,ARG_OF_PERICENTER,MEAN_ANOMALY,BSTAR,MEAN_MOTION_DOT,MEAN_MOTION_DDOT,TLE_LINE0,TLE_LINE1,TLE_LINE2,SEMIMAJOR_AXIS,PERIOD,APOGEE,PERIGEE,DECAYED
52487.0,STARLINK-3902,PAYLOAD,2022-07-30 14:00:01,15.34685537,0.0001408,53.2172,207.3582,54.7541,47.3785,-0.034112,-0.01067508,0.0,0 STARLINK-3902,1 52487U 22049AN  22211.58334491 -.01067508  00000-0 -34112-1 0  9999,2 52487  53.2172 207.3582 0001408  54.7541  47.3785 15.34685537  1309,6839.9919999999975,93.83,462.82,460.894,0.0
52487.0,STARLINK-3902,PAYLOAD,2022-07-30 22:00:00,15.33926289,0.0001525,53.2174,205.8005,53.01300000000001,91.3072,-0.035,-0.01068926,0.0,0 STARLINK-3902,1 52487U 22049AN  22211.91667824 -.01068926  00000-0 -35000-1 0  9997,2 52487  53.2174 205.8005 0001525  53.0130  91.3072 15.33926289  1309,6842.249,93.877,465.157,463.07,0.0
52487.0,STARLINK-3902,PAYLOAD,2022-07-31 14:00:01,15.32407922,0.0001447,53.2172,202.6947,61.5093,164.4452,-0.036741,-0.01069246,0.0,0 STARLINK-3902,1 52487U 22049AN  22212.58334491 -.01069246  00000-0 -36741-1 0  9991,2 52487  53.2172 202.6947 0001447  61.5093 164.4452 15.32407922  1303,6846.768,93.97,469.62300000000016,467.642,0.0
52487.0,STARLINK-3902,PAYLOAD,2022-07-31 22:00:00,15.31646484,0.0001479,53.2174,201.1424,54.11600000000001,211.2886,-0.037513,-0.01066109,0.0,0 STARLINK-3902,1 52487U 22049AN  22212.91667824 -.01066109  00000-0 -37513-1 0  9990,2 52487  53.2174 201.1424 0001479  54.1160 211.2886 15.31646484 13758,6849.0369999999975,94.016,471.915,469.889,0.0
52487.0,STARLINK-3902,PAYLOAD,2022-08-01 14:00:01,15.30129645,0.0001327,53.2172,198.0473,53.6821,287.8805,-0.039475,-0.01069524,0.0,0 STARLINK-3902,1 52487U 22049AN  22213.58334491 -.01069524  00000-0 -39475-1 0  9998,2 52487  53.2172 198.0473 0001327  53.6821 287.8805 15.30129645  1306,6853.562,94.11,476.337,474.518,0.0
52487.0,STARLINK-3902,PAYLOAD,2022-08-01 22:00:00,15.29366632,0.0001448,53.2173,196.5006,46.9561,331.319,-0.040173,-0.01063494,0.0,0 STARLINK-3902,1 52487U 22049AN  22213.91667824 -.01063494  00000-0 -40173-1 0  9991,2 52487  53.2173 196.5006 0001448  46.9561 331.3190 15.29366632 13900,6855.840999999999,94.157,478.699,476.714,0.0
52487.0,STARLINK-3902,PAYLOAD,2022-08-02 14:00:01,15.27849381,0.0001409999999999,53.2172,193.4162,54.9421,34.0153,-0.042207,-0.01066008,0.0,0 STARLINK-3902,1 52487U 22049AN  22214.58334491 -.01066008  00000-0 -42207-1 0  9990,2 52487  53.2172 193.4162 0001410  54.9421  34.0153 15.27849381 14004,6860.38,94.25,483.212,481.277,0.0
52487.0,STARLINK-3902,PAYLOAD,2022-08-03 14:00:01,15.25571097,0.0001496,53.2173,188.801,61.1821,126.9555,-0.045247,-0.01066087,0.0,0 STARLINK-3902,1 52487U 22049AN  22215.58334491 -.01066087  00000-0 -45247-1 0  9995,2 52487  53.2173 188.8010 0001496  61.1821 126.9555 15.25571097 14150,6867.208000000001,94.391,490.1,488.046,0.0
52487.0,STARLINK-3902,PAYLOAD,2022-08-03 22:00:01,15.24810688,0.0001587,53.2174,187.2652,55.1896,164.2466,-0.046187,-0.01063741,0.0,0 STARLINK-3902,1 52487U 22049AN  22215.91668981 -.01063741  00000-0 -46187-1 0  9994,2 52487  53.2174 187.2652 0001587  55.1896 164.2466 15.24810688  1302,6869.491,94.438,492.446,490.266,0.0
52487.0,STARLINK-3902,PAYLOAD,2022-08-04 14:00:01,15.23293503,0.0001415,53.2173,184.2019,58.6164,220.487,-0.048535,-0.01067661,0.0,0 STARLINK-3902,1 52487U 22049AN  22216.58334491 -.01067661  00000-0 -48535-1 0  9998,2 52487  53.2173 184.2019 0001415  58.6164 220.4870 15.23293503  1305,6874.051,94.532,496.889,494.944,0.0
52487.0,STARLINK-3902,PAYLOAD,2022-08-04 22:00:00,15.22531105,0.0001520999999999,53.2176,182.6716,49.0322,258.569,-0.049342,-0.01061586,0.0,0 STARLINK-3902,1 52487U 22049AN  22216.91667824 -.01061586  00000-0 -49342-1 0  9991,2 52487  53.2176 182.6716 0001521  49.0322 258.5690 15.22531105  1306,6876.346,94.579,499.257,497.165,0.0
52487.0,STARLINK-3902,PAYLOAD,2022-08-05 14:00:01,15.21014436,0.0001335,53.2174,179.6187,54.9986,306.9207,-0.051883,-0.01066718,0.0,0 STARLINK-3902,1 52487U 22049AN  22217.58335648 -.01066718  00000-0 -51883-1 0  9996,2 52487  53.2174 179.6187 0001335  54.9986 306.9207 15.21014436  1300,6880.916,94.674,503.7,501.86300000000006,0.0
52487.0,STARLINK-3902,PAYLOAD,2022-08-05 22:00:00,15.20252055,0.0001385999999999,53.2175,178.0942,54.8278,332.7878,-0.052739,-0.01060809,0.0,0 STARLINK-3902,1 52487U 22049AN  22217.91667824 -.01060809  00000-0 -52739-1 0  9993,2 52487  53.2175 178.0942 0001386  54.8278 332.7878 15.20252055  1303,6883.217,94.721,506.036,504.128,0.0
52487.0,STARLINK-3902,PAYLOAD,2022-08-06 14:00:01,15.18734762,0.0001492,53.2174,175.0517,50.5116,25.8829,-0.055333,-0.01077895,0.0,0 STARLINK-3902,1 52487U 22049AN  22218.58334491 -.01077895  00000-0 -55333-1 0  9994,2 52487  53.2174 175.0517 0001492  50.5116  25.8829 15.18734762 14610,6887.8,94.816,510.693,508.638,0.0
52487.0,STARLINK-3902,PAYLOAD,2022-08-06 21:34:35,15.202758,0.0002106,53.213,173.62599999999995,65.7148,294.4069,-0.0134159999999999,-0.00284083,0.0,0 STARLINK-3902,1 52487U 22049AN  22218.89901678 -.00284083  00000-0 -13416-1 0  9999,2 52487  53.2130 173.6260 0002106  65.7148 294.4069 15.20275800 15748,6883.145,94.72,506.46,503.56,0.0
52487.0,STARLINK-3902,PAYLOAD,2022-08-07 11:48:32,15.18679931,0.0003773,53.2132,170.9315,16.2768,343.8348,-0.015646,-0.0031498,0.0,0 STARLINK-3902,1 52487U 22049AN  22219.49204454 -.00314980  00000-0 -15646-1 0  9991,2 52487  53.2132 170.9315 0003773  16.2768 343.8348 15.18679931 15830,6887.965999999999,94.819,512.43,507.232,0.0
52487.0,STARLINK-3902,PAYLOAD,2022-08-07 22:00:00,15.15694861,0.0001746,53.2177,168.9869,48.2727,114.7295,-0.060162,-0.01073984,0.0,0 STARLINK-3902,1 52487U 22049AN  22219.91667824 -.01073984  00000-0 -60162-1 0  9992,2 52487  53.2177 168.9869 0001746  48.2727 114.7295 15.15694861  1307,6897.007,95.006,520.076,517.668,0.0
52487.0,STARLINK-3902,PAYLOAD,2022-08-08 14:00:01,15.14177058,0.0001526,53.2174,165.9653,62.2732,138.6191,-0.062944,-0.01075946,0.0,0 STARLINK-3902,1 52487U 22049AN  22220.58335648 -.01075946  00000-0 -62944-1 0  9993,2 52487  53.2174 165.9653 0001526  62.2732 138.6191 15.14177058  1303,6901.615,95.101,524.533,522.427,0.0
52487.0,STARLINK-3902,PAYLOAD,2022-08-08 20:00:01,15.13606471,0.0001678,53.2175,164.8334,49.6855,74.4515,-0.0638519999999999,-0.01074152,0.0,0 STARLINK-3902,1 52487U 22049AN  22220.83335648 -.01074152  00000-0 -63852-1 0  9998,2 52487  53.2175 164.8334 0001678  49.6855  74.4515 15.13606471 14958,6903.349,95.137,526.373,524.056,0.0
52487.0,STARLINK-3902,PAYLOAD,2022-08-08 22:00:00,15.1341622,0.0001653,53.2177,164.4573,53.9291,164.4452,-0.064153,-0.01073481,0.0,0 STARLINK-3902,1 52487U 22049AN  22220.91667824 -.01073481  00000-0 -64153-1 0  9990,2 52487  53.2177 164.4573 0001653  53.9291 164.4452 15.13416220  1302,6903.928000000001,95.149,526.934,524.6519999999998,0.0
52487.0,STARLINK-3902,PAYLOAD,2022-08-09 14:00:01,15.11898266,0.0001506,53.2175,161.446,59.2183,191.5074,-0.067073,-0.01075294,0.0,0 STARLINK-3902,1 52487U 22049AN  22221.58334491 -.01075294  00000-0 -67073-1 0  9993,2 52487  53.2175 161.4460 0001506  59.2183 191.5074 15.11898266 15070,6908.5480000000025,95.245,531.4540000000002,529.373,0.0
52487.0,STARLINK-3902,PAYLOAD,2022-08-09 22:00:00,15.11137707,0.0001564,53.2176,159.9434,55.2056,210.3269,-0.068373,-0.01073262,0.0,0 STARLINK-3902,1 52487U 22049AN  22221.91667824 -.01073262  00000-0 -68373-1 0  9996,2 52487  53.2176 159.9434 0001564  55.2056 210.3269 15.11137707  1306,6910.866,95.292,533.812,531.65,0.0
52487.0,STARLINK-3902,PAYLOAD,2022-08-10 14:00:01,15.09498792,0.0001506999999999,53.2175,156.9427,54.6763,237.7518,-0.046017,-0.00695808,0.0,0 STARLINK-3902,1 52487U 22049AN  22222.58334491 -.00695808  00000-0 -46017-1 0  9997,2 52487  53.2175 156.9427 0001507  54.6763 237.7518 15.09498792  1300,6915.8669999999975,95.396,538.775,536.69,0.0
52487.0,STARLINK-3902,PAYLOAD,2022-08-10 17:07:18,15.09215178,0.0001643,53.2173,156.3578,47.5029,232.1094,-0.031372,-0.00477137,0.0,0 STARLINK-3902,1 52487U 22049AN  22222.71341435 -.00477137  00000-0 -31372-1 0  9999,2 52487  53.2173 156.3578 0001643  47.5029 232.1094 15.09215178 15247,6916.734,95.414,539.735,537.462,0.0
52487.0,STARLINK-3902,PAYLOAD,2022-08-10 22:00:00,15.08878171,0.0001704,53.2176,155.4456,50.0499,254.484,-0.0043007,-0.00068158,0.0,0 STARLINK-3902,1 52487U 22049AN  22222.91667824 -.00068158  00000-0 -43007-2 0  9992,2 52487  53.2176 155.4456 0001704  50.0499 254.4840 15.08878171 15279,6917.764,95.435,540.808,538.45,0.0
52487.0,STARLINK-3902,PAYLOAD,2022-08-11 06:00:02,15.08725079,0.0001479,53.2149,153.9547,55.5582,260.5372,0.024069,0.00404096,0.0,0 STARLINK-3902,1 52487U 22049AN  22223.25002315  .00404096  00000-0  24069-1 0  9997,2 52487  53.2149 153.9547 0001479  55.5582 260.5372 15.08725079 15327,6918.232,95.445,541.12,539.073,0.0
52487.0,STARLINK-3902,PAYLOAD,2022-08-11 14:00:01,15.08838077,0.000123,53.2127,152.4594,50.7062,276.9103,0.0011035,0.00017317,0.0,0 STARLINK-3902,1 52487U 22049AN  22223.58334491  .00017317  00000-0  11035-2 0  9992,2 52487  53.2127 152.4594 0001230  50.7062 276.9103 15.08838077  1303,6917.886,95.438,540.602,538.9,0.0
52487.0,STARLINK-3902,PAYLOAD,2022-08-11 22:00:00,15.08872345,0.0001286,53.2128,150.9634,53.0615,286.1539,-0.0010845999999999,-0.00017523,0.0,0 STARLINK-3902,1 52487U 22049AN  22223.91667824 -.00017523  00000-0 -10846-2 0  9998,2 52487  53.2128 150.9634 0001286  53.0615 286.1539 15.08872345 15423,6917.781999999997,95.436,540.536,538.757,0.0
52487.0,STARLINK-3902,PAYLOAD,2022-08-12 14:00:01,15.08862217,0.0001347,53.2129,147.9699,53.5582,308.93,-9.2419e-05,-1.759e-05,0.0,0 STARLINK-3902,1 52487U 22049AN  22224.58334491 -.00001759  00000-0 -92419-4 0  9995,2 52487  53.2129 147.9699 0001347  53.5582 308.9300 15.08862217 15524,6917.812,95.436,540.609,538.746,0.0
